{
    "CCSDS_OMM_VERS": "3.0",
    "COMMENT": "GENERATED VIA SPACE-TRACK.ORG API",
    "CREATION_DATE": "2025-05-22T17:14:14",
    "ORIGINATOR": "18 SPCS",
    "OBJECT_NAME": "COSMOS 2545 (GLONASS)",
    "OBJECT_ID": "2020-018A",
    "CENTER_NAME": "EARTH",
    "REF_FRAME": "TEME",
    "TIME_SYSTEM": "UTC",
    "MEAN_ELEMENT_THEORY": "SGP4",
    "EPOCH": "2025-05-21T20:41:06.578016",
    "MEAN_MOTION": "2.13102466",
    "ECCENTRICITY": "0.00073380",
    "INCLINATION": "64.5844",
    "RA_OF_ASC_NODE": "326.1431",
    "ARG_OF_PERICENTER": "238.0148",
    "MEAN_ANOMALY": "121.9337",
    "EPHEMERIS_TYPE": "0",
    "CLASSIFICATION_TYPE": "U",
    "NORAD_CAT_ID": "45358",
    "ELEMENT_SET_NO": "999",
    "REV_AT_EPOCH": "4032",
    "BSTAR": "0.00000000000000",
    "MEAN_MOTION_DOT": "-0.00000022",
    "MEAN_MOTION_DDOT": "0.0000000000000",
    "SEMIMAJOR_AXIS": "25507.987",
    "PERIOD": "675.731",
    "APOAPSIS": "19148.570",
    "PERIAPSIS": "19111.134",
    "OBJECT_TYPE": "PAYLOAD",
    "RCS_SIZE": "LARGE",
    "COUNTRY_CODE": "CIS",
    "LAUNCH_DATE": "2020-03-16",
    "SITE": "PKMTR",
    "DECAY_DATE": null,
    "FILE": "4736220",
    "GP_ID": "288145489",
    "TLE_LINE0": "0 COSMOS 2545 (GLONASS)",
    "TLE_LINE1": "1 45358U 20018A   25141.86188169 -.00000022  00000-0  00000-0 0  9991",
    "TLE_LINE2": "2 45358  64.5844 326.1431 0007338 238.0148 121.9337  2.13102466 40325"
}